{"type": "FeatureCollection", "features": [ {"type": "Feature", "properties": {"norad_id": 17070, "name": "POLAR BEAR", "group": "nnss", "lat": -2.634117031346959, "lon": -175.82542077937873, "alt_km": 1010.2510139487022, "timestamp": "2025-12-02T06:27:53.282247+00:00", "meta": {"OBJECT_NAME": "POLAR BEAR", "OBJECT_ID": "1986-088A", "EPOCH": "2025-12-01T20:03:05.669856", "MEAN_MOTION": 13.75247265, "ECCENTRICITY": 0.0040149, "INCLINATION": 89.6181, "RA_OF_ASC_NODE": 184.2096, "ARG_OF_PERICENTER": 151.0585, "MEAN_ANOMALY": 219.8339, "EPHEMERIS_TYPE": 0, "CLASSIFICATION_TYPE": "U", "NORAD_CAT_ID": 17070, "ELEMENT_SET_NO": 999, "REV_AT_EPOCH": 95829, "BSTAR": 0.00011842, "MEAN_MOTION_DOT": 1.26e-06, "MEAN_MOTION_DDOT": 0}, "tle": {"line1": "1 17070U 86088A   25335.83548229  .00000126  00000+0  11842-3 0  9991", "line2": "2 17070  89.6181 184.2096 0040149 151.0585 219.8339 13.75247265958293"}}, "geometry": {"type": "Point", "coordinates": [-175.82542077937873, -2.634117031346959]}}, {"type": "Feature", "properties": {"norad_id": 18361, "name": "OSCAR 27", "group": "nnss", "lat": -41.72139798441208, "lon": 79.2144259913593, "alt_km": 1063.7433056505097, "timestamp": "2025-12-02T06:27:53.282257+00:00", "meta": {"OBJECT_NAME": "OSCAR 27", "OBJECT_ID": "1987-080A", "EPOCH": "2025-12-01T19:57:28.811808", "MEAN_MOTION": 13.44903069, "ECCENTRICITY": 0.0102278, "INCLINATION": 90.3742, "RA_OF_ASC_NODE": 78.8642, "ARG_OF_PERICENTER": 255.4763, "MEAN_ANOMALY": 103.5022, "EPHEMERIS_TYPE": 0, "CLASSIFICATION_TYPE": "U", "NORAD_CAT_ID": 18361, "ELEMENT_SET_NO": 999, "REV_AT_EPOCH": 87410, "BSTAR": 0.00018081, "MEAN_MOTION_DOT": 1.17e-06, "MEAN_MOTION_DDOT": 0}, "tle": {"line1": "1 18361U 87080A   25335.83158347  .00000117  00000+0  18081-3 0  9998", "line2": "2 18361  90.3742  78.8642 0102278 255.4763 103.5022 13.44903069874105"}}, "geometry": {"type": "Point", "coordinates": [79.2144259913593, -41.72139798441208]}}, {"type": "Feature", "properties": {"norad_id": 18362, "name": "OSCAR 29", "group": "nnss", "lat": -12.24373153245773, "lon": 79.42018320327767, "alt_km": 1070.2232477303323, "timestamp": "2025-12-02T06:27:53.282282+00:00", "meta": {"OBJECT_NAME": "OSCAR 29", "OBJECT_ID": "1987-080B", "EPOCH": "2025-12-01T20:23:05.898048", "MEAN_MOTION": 13.44445223, "ECCENTRICITY": 0.0103665, "INCLINATION": 90.3755, "RA_OF_ASC_NODE": 79.3229, "ARG_OF_PERICENTER": 278.8683, "MEAN_ANOMALY": 196.3233, "EPHEMERIS_TYPE": 0, "CLASSIFICATION_TYPE": "U", "NORAD_CAT_ID": 18362, "ELEMENT_SET_NO": 999, "REV_AT_EPOCH": 87363, "BSTAR": 0.00015139, "MEAN_MOTION_DOT": 9.8e-07, "MEAN_MOTION_DDOT": 0}, "tle": {"line1": "1 18362U 87080B   25335.84937382  .00000098  00000+0  15139-3 0  9993", "line2": "2 18362  90.3755  79.3229 0103665 278.8683 196.3233 13.44445223873632"}}, "geometry": {"type": "Point", "coordinates": [79.42018320327767, -12.24373153245773]}}, {"type": "Feature", "properties": {"norad_id": 19070, "name": "OSCAR 23", "group": "nnss", "lat": 29.18196937087556, "lon": 15.887426056980484, "alt_km": 1295.8408831987463, "timestamp": "2025-12-02T06:27:53.282294+00:00", "meta": {"OBJECT_NAME": "OSCAR 23", "OBJECT_ID": "1988-033A", "EPOCH": "2025-12-01T20:20:56.254848", "MEAN_MOTION": 13.27784562, "ECCENTRICITY": 0.0188635, "INCLINATION": 90.3226, "RA_OF_ASC_NODE": 16.0545, "ARG_OF_PERICENTER": 210.2627, "MEAN_ANOMALY": 325.4446, "EPHEMERIS_TYPE": 0, "CLASSIFICATION_TYPE": "U", "NORAD_CAT_ID": 19070, "ELEMENT_SET_NO": 999, "REV_AT_EPOCH": 82108, "BSTAR": 0.00020184, "MEAN_MOTION_DOT": 1.08e-06, "MEAN_MOTION_DDOT": 0}, "tle": {"line1": "1 19070U 88033A   25335.84787332  .00000108  00000+0  20184-3 0  9995", "line2": "2 19070  90.3226  16.0545 0188635 210.2627 325.4446 13.27784562821085"}}, "geometry": {"type": "Point", "coordinates": [15.887426056980484, 29.18196937087556]}}, {"type": "Feature", "properties": {"norad_id": 19071, "name": "OSCAR 32", "group": "nnss", "lat": 48.54582494544744, "lon": -163.43522695814895, "alt_km": 1087.3040380322218, "timestamp": "2025-12-02T06:27:53.282304+00:00", "meta": {"OBJECT_NAME": "OSCAR 32", "OBJECT_ID": "1988-033B", "EPOCH": "2025-12-01T15:55:18.699168", "MEAN_MOTION": 13.27951626, "ECCENTRICITY": 0.01874368, "INCLINATION": 90.3229, "RA_OF_ASC_NODE": 16.18, "ARG_OF_PERICENTER": 197.5975, "MEAN_ANOMALY": 280.5511, "EPHEMERIS_TYPE": 0, "CLASSIFICATION_TYPE": "U", "NORAD_CAT_ID": 19071, "ELEMENT_SET_NO": 999, "REV_AT_EPOCH": 82118, "BSTAR": 0.00016826456, "MEAN_MOTION_DOT": 9.2e-07, "MEAN_MOTION_DDOT": 0}, "tle": {"line1": "1 19071U 88033B   25335.66341087  .00000092  00000+0  16826-3 0  9999", "line2": "2 19071  90.3229  16.1800 0187436 197.5975 280.5511 13.27951626821187"}}, "geometry": {"type": "Point", "coordinates": [-163.43522695814895, 48.54582494544744]}}, {"type": "Feature", "properties": {"norad_id": 19223, "name": "NOVA 2", "group": "nnss", "lat": 20.15726060150443, "lon": -101.71932897321666, "alt_km": 1183.3851691239324, "timestamp": "2025-12-02T06:27:53.282315+00:00", "meta": {"OBJECT_NAME": "NOVA 2", "OBJECT_ID": "1988-052A", "EPOCH": "2025-12-01T19:22:23.856384", "MEAN_MOTION": 13.2293377, "ECCENTRICITY": 0.0031453, "INCLINATION": 89.9873, "RA_OF_ASC_NODE": 78.2859, "ARG_OF_PERICENTER": 46.3277, "MEAN_ANOMALY": 73.3591, "EPHEMERIS_TYPE": 0, "CLASSIFICATION_TYPE": "U", "NORAD_CAT_ID": 19223, "ELEMENT_SET_NO": 999, "REV_AT_EPOCH": 80803, "BSTAR": 0.00011217, "MEAN_MOTION_DOT": 5.6e-07, "MEAN_MOTION_DDOT": 0}, "tle": {"line1": "1 19223U 88052A   25335.80722056  .00000056  00000+0  11217-3 0  9993", "line2": "2 19223  89.9873  78.2859 0031453  46.3277  73.3591 13.22933770808031"}}, "geometry": {"type": "Point", "coordinates": [-101.71932897321666, 20.15726060150443]}}, {"type": "Feature", "properties": {"norad_id": 19419, "name": "OSCAR 25", "group": "nnss", "lat": -33.70432492409194, "lon": -159.81459487252198, "alt_km": 1072.8861276449588, "timestamp": "2025-12-02T06:27:53.282325+00:00", "meta": {"OBJECT_NAME": "OSCAR 25", "OBJECT_ID": "1988-074A", "EPOCH": "2025-12-01T15:39:19.958976", "MEAN_MOTION": 13.42619963, "ECCENTRICITY": 0.00941983, "INCLINATION": 90.0358, "RA_OF_ASC_NODE": 20.2071, "ARG_OF_PERICENTER": 278.0594, "MEAN_ANOMALY": 195.7807, "EPHEMERIS_TYPE": 0, "CLASSIFICATION_TYPE": "U", "NORAD_CAT_ID": 19419, "ELEMENT_SET_NO": 999, "REV_AT_EPOCH": 82491, "BSTAR": 0.00019519513, "MEAN_MOTION_DOT": 1.22e-06, "MEAN_MOTION_DDOT": 0}, "tle": {"line1": "1 19419U 88074A   25335.65231434  .00000122  00000+0  19520-3 0  9991", "line2": "2 19419  90.0358  20.2071 0094198 278.0594 195.7807 13.42619963824914"}}, "geometry": {"type": "Point", "coordinates": [-159.81459487252198, -33.70432492409194]}}, {"type": "Feature", "properties": {"norad_id": 19420, "name": "OSCAR 31", "group": "nnss", "lat": 80.37364678654015, "lon": -159.2210677358085, "alt_km": 1160.604887299849, "timestamp": "2025-12-02T06:27:53.282335+00:00", "meta": {"OBJECT_NAME": "OSCAR 31", "OBJECT_ID": "1988-074B", "EPOCH": "2025-12-01T16:16:42.845088", "MEAN_MOTION": 13.42581782, "ECCENTRICITY": 0.0092422, "INCLINATION": 90.0375, "RA_OF_ASC_NODE": 20.5555, "ARG_OF_PERICENTER": 272.0976, "MEAN_ANOMALY": 212.4422, "EPHEMERIS_TYPE": 0, "CLASSIFICATION_TYPE": "U", "NORAD_CAT_ID": 19420, "ELEMENT_SET_NO": 999, "REV_AT_EPOCH": 82502, "BSTAR": 0.00017408, "MEAN_MOTION_DOT": 1.09e-06, "MEAN_MOTION_DDOT": 0}, "tle": {"line1": "1 19420U 88074B   25335.67827367  .00000109  00000+0  17408-3 0  9999", "line2": "2 19420  90.0375  20.5555 0092422 272.0976 212.4422 13.42581782825021"}}, "geometry": {"type": "Point", "coordinates": [-159.2210677358085, 80.37364678654015]}}]}